PROGRESS-MS 32          
1 65586U 25204A   25300.16780669  .00014439  00000+0  26496-3 0  9996
2 65586  51.6344  13.0478 0004675 344.0892  15.9949 15.49510292   274
CYGNUS NG-23            
1 65616U 25208A   25300.16780669  .00014439  00000+0  26496-3 0  9994
2 65616  51.6344  13.0478 0004675 344.0892  15.9949 15.49510292   223
DRAGONFLY               
1 65729U 98067XH  25299.91780448  .00095066  00000+0  12136-2 0  9997
2 65729  51.6321  12.8828 0002748  46.2882 313.8338 15.58484099  5837
1998-067XJ              
1 65730U 98067XJ  25300.23395640  .00215700  00000+0  20773-2 0  9998
2 65730  51.6303  10.4904 0010050  19.7967 340.3416 15.65246886  5898
1998-067XK              
1 65731U 98067XK  25300.19240262  .00063363  00000+0  86543-3 0  9997
2 65731  51.6328  11.7171 0004455  20.3250 339.7918 15.56848890  5871
RSP-03                  
1 65732U 98067XL  25300.24768310  .00073131  00000+0  96605-3 0  9997
2 65732  51.6324  11.3358 0005105  21.1810 338.9393 15.57679977  5894
GHS-01                  
1 65733U 98067XM  25299.91181963  .00103663  00000+0  12932-2 0  9996
2 65733  51.6330  12.8443 0003109  41.9991 318.1240 15.59054564  5842
YOTSUBA-KULOVER         
1 65941U 98067XN  25300.27430305  .00050396  00000+0  80727-3 0  9998
2 65941  51.6336  12.2607 0002448 315.8406  44.2388 15.52592485  2629
BOTAN                   
1 65942U 98067XP  25300.20651253  .00068238  00000+0  10633-2 0  9991
2 65942  51.6340  12.5584 0004340 338.3786  21.7021 15.53223057  2616
E-KAGAKU-1              
1 65943U 98067XQ  25299.43713291  .00049272  00000+0  79166-3 0  9999
2 65943  51.6337  16.4198 0004085 323.6954  36.3758 15.52513453  2493
HRC MONOBLOCK CAMERA    
1 66052U 98067XR  25300.22893350  .00030905  00000+0  54270-3 0  9998
2 66052  51.6329  12.7070 0004073 351.7929   8.2993 15.50238570  1619
HTV-X 1                 
1 66174U 25241A   25300.30144025  .00021425  00000+0  19950-3 0  9997
2 66174  51.6332  12.4451 0031084 307.5153  52.3018 15.66702461   213
