CCSDS_OMM_VERS = 2.0
CREATION_DATE  = 
ORIGINATOR     = 

OBJECT_NAME    = PROGRESS-MS 32
OBJECT_ID      = 2025-204A
CENTER_NAME    = EARTH
REF_FRAME      = TEME
TIME_SYSTEM    = UTC
MEAN_ELEMENT_THEORY = SGP/SGP4

EPOCH          = 2025-10-27T04:01:38.498016
MEAN_MOTION    = 15.49510292
ECCENTRICITY   = .00046759
INCLINATION    = 51.6344
RA_OF_ASC_NODE = 13.0478
ARG_OF_PERICENTER = 344.0892
MEAN_ANOMALY   = 15.9949

EPHEMERIS_TYPE = 0
CLASSIFICATION_TYPE = U
NORAD_CAT_ID   = 65586
ELEMENT_SET_NO = 999
REV_AT_EPOCH   = 27
BSTAR          = .26496221E-3
MEAN_MOTION_DOT = .14439E-3
MEAN_MOTION_DDOT = 0

CCSDS_OMM_VERS = 2.0
CREATION_DATE  = 
ORIGINATOR     = 

OBJECT_NAME    = CYGNUS NG-23
OBJECT_ID      = 2025-208A
CENTER_NAME    = EARTH
REF_FRAME      = TEME
TIME_SYSTEM    = UTC
MEAN_ELEMENT_THEORY = SGP/SGP4

EPOCH          = 2025-10-27T04:01:38.498016
MEAN_MOTION    = 15.49510292
ECCENTRICITY   = .00046759
INCLINATION    = 51.6344
RA_OF_ASC_NODE = 13.0478
ARG_OF_PERICENTER = 344.0892
MEAN_ANOMALY   = 15.9949

EPHEMERIS_TYPE = 0
CLASSIFICATION_TYPE = U
NORAD_CAT_ID   = 65616
ELEMENT_SET_NO = 999
REV_AT_EPOCH   = 22
BSTAR          = .26496221E-3
MEAN_MOTION_DOT = .14439E-3
MEAN_MOTION_DDOT = 0

CCSDS_OMM_VERS = 2.0
CREATION_DATE  = 
ORIGINATOR     = 

OBJECT_NAME    = DRAGONFLY
OBJECT_ID      = 1998-067XH
CENTER_NAME    = EARTH
REF_FRAME      = TEME
TIME_SYSTEM    = UTC
MEAN_ELEMENT_THEORY = SGP/SGP4

EPOCH          = 2025-10-26T22:01:38.307072
MEAN_MOTION    = 15.58484099
ECCENTRICITY   = .0002748
INCLINATION    = 51.6321
RA_OF_ASC_NODE = 12.8828
ARG_OF_PERICENTER = 46.2882
MEAN_ANOMALY   = 313.8338

EPHEMERIS_TYPE = 0
CLASSIFICATION_TYPE = U
NORAD_CAT_ID   = 65729
ELEMENT_SET_NO = 999
REV_AT_EPOCH   = 583
BSTAR          = .12136E-2
MEAN_MOTION_DOT = .95066E-3
MEAN_MOTION_DDOT = 0

CCSDS_OMM_VERS = 2.0
CREATION_DATE  = 
ORIGINATOR     = 

OBJECT_NAME    = 1998-067XJ
OBJECT_ID      = 1998-067XJ
CENTER_NAME    = EARTH
REF_FRAME      = TEME
TIME_SYSTEM    = UTC
MEAN_ELEMENT_THEORY = SGP/SGP4

EPOCH          = 2025-10-27T05:36:53.832960
MEAN_MOTION    = 15.65246886
ECCENTRICITY   = .00100506
INCLINATION    = 51.6303
RA_OF_ASC_NODE = 10.4904
ARG_OF_PERICENTER = 19.7967
MEAN_ANOMALY   = 340.3416

EPHEMERIS_TYPE = 0
CLASSIFICATION_TYPE = U
NORAD_CAT_ID   = 65730
ELEMENT_SET_NO = 999
REV_AT_EPOCH   = 589
BSTAR          = .20772539E-2
MEAN_MOTION_DOT = .2157E-2
MEAN_MOTION_DDOT = 0

CCSDS_OMM_VERS = 2.0
CREATION_DATE  = 
ORIGINATOR     = 

OBJECT_NAME    = 1998-067XK
OBJECT_ID      = 1998-067XK
CENTER_NAME    = EARTH
REF_FRAME      = TEME
TIME_SYSTEM    = UTC
MEAN_ELEMENT_THEORY = SGP/SGP4

EPOCH          = 2025-10-27T04:37:03.586368
MEAN_MOTION    = 15.56848890
ECCENTRICITY   = .00044553
INCLINATION    = 51.6328
RA_OF_ASC_NODE = 11.7171
ARG_OF_PERICENTER = 20.3250
MEAN_ANOMALY   = 339.7918

EPHEMERIS_TYPE = 0
CLASSIFICATION_TYPE = U
NORAD_CAT_ID   = 65731
ELEMENT_SET_NO = 999
REV_AT_EPOCH   = 587
BSTAR          = .86543241E-3
MEAN_MOTION_DOT = .63363E-3
MEAN_MOTION_DDOT = 0

CCSDS_OMM_VERS = 2.0
CREATION_DATE  = 
ORIGINATOR     = 

OBJECT_NAME    = RSP-03
OBJECT_ID      = 1998-067XL
CENTER_NAME    = EARTH
REF_FRAME      = TEME
TIME_SYSTEM    = UTC
MEAN_ELEMENT_THEORY = SGP/SGP4

EPOCH          = 2025-10-27T05:56:39.819840
MEAN_MOTION    = 15.57679977
ECCENTRICITY   = .00051059
INCLINATION    = 51.6324
RA_OF_ASC_NODE = 11.3358
ARG_OF_PERICENTER = 21.1810
MEAN_ANOMALY   = 338.9393

EPHEMERIS_TYPE = 0
CLASSIFICATION_TYPE = U
NORAD_CAT_ID   = 65732
ELEMENT_SET_NO = 999
REV_AT_EPOCH   = 589
BSTAR          = .96604849E-3
MEAN_MOTION_DOT = .73131E-3
MEAN_MOTION_DDOT = 0

CCSDS_OMM_VERS = 2.0
CREATION_DATE  = 
ORIGINATOR     = 

OBJECT_NAME    = GHS-01
OBJECT_ID      = 1998-067XM
CENTER_NAME    = EARTH
REF_FRAME      = TEME
TIME_SYSTEM    = UTC
MEAN_ELEMENT_THEORY = SGP/SGP4

EPOCH          = 2025-10-26T21:53:01.216032
MEAN_MOTION    = 15.59054564
ECCENTRICITY   = .0003109
INCLINATION    = 51.6330
RA_OF_ASC_NODE = 12.8443
ARG_OF_PERICENTER = 41.9991
MEAN_ANOMALY   = 318.1240

EPHEMERIS_TYPE = 0
CLASSIFICATION_TYPE = U
NORAD_CAT_ID   = 65733
ELEMENT_SET_NO = 999
REV_AT_EPOCH   = 584
BSTAR          = .12932E-2
MEAN_MOTION_DOT = .103663E-2
MEAN_MOTION_DDOT = 0

CCSDS_OMM_VERS = 2.0
CREATION_DATE  = 
ORIGINATOR     = 

OBJECT_NAME    = YOTSUBA-KULOVER
OBJECT_ID      = 1998-067XN
CENTER_NAME    = EARTH
REF_FRAME      = TEME
TIME_SYSTEM    = UTC
MEAN_ELEMENT_THEORY = SGP/SGP4

EPOCH          = 2025-10-27T06:34:59.783520
MEAN_MOTION    = 15.52592485
ECCENTRICITY   = .00024488
INCLINATION    = 51.6336
RA_OF_ASC_NODE = 12.2607
ARG_OF_PERICENTER = 315.8406
MEAN_ANOMALY   = 44.2388

EPHEMERIS_TYPE = 0
CLASSIFICATION_TYPE = U
NORAD_CAT_ID   = 65941
ELEMENT_SET_NO = 999
REV_AT_EPOCH   = 262
BSTAR          = .8072716E-3
MEAN_MOTION_DOT = .50396E-3
MEAN_MOTION_DDOT = 0

CCSDS_OMM_VERS = 2.0
CREATION_DATE  = 
ORIGINATOR     = 

OBJECT_NAME    = BOTAN
OBJECT_ID      = 1998-067XP
CENTER_NAME    = EARTH
REF_FRAME      = TEME
TIME_SYSTEM    = UTC
MEAN_ELEMENT_THEORY = SGP/SGP4

EPOCH          = 2025-10-27T04:57:22.682592
MEAN_MOTION    = 15.53223057
ECCENTRICITY   = .00043408
INCLINATION    = 51.6340
RA_OF_ASC_NODE = 12.5584
ARG_OF_PERICENTER = 338.3786
MEAN_ANOMALY   = 21.7021

EPHEMERIS_TYPE = 0
CLASSIFICATION_TYPE = U
NORAD_CAT_ID   = 65942
ELEMENT_SET_NO = 999
REV_AT_EPOCH   = 261
BSTAR          = .10632931E-2
MEAN_MOTION_DOT = .68238E-3
MEAN_MOTION_DDOT = 0

CCSDS_OMM_VERS = 2.0
CREATION_DATE  = 
ORIGINATOR     = 

OBJECT_NAME    = E-KAGAKU-1
OBJECT_ID      = 1998-067XQ
CENTER_NAME    = EARTH
REF_FRAME      = TEME
TIME_SYSTEM    = UTC
MEAN_ELEMENT_THEORY = SGP/SGP4

EPOCH          = 2025-10-26T10:29:28.283424
MEAN_MOTION    = 15.52513453
ECCENTRICITY   = .00040855
INCLINATION    = 51.6337
RA_OF_ASC_NODE = 16.4198
ARG_OF_PERICENTER = 323.6954
MEAN_ANOMALY   = 36.3758

EPHEMERIS_TYPE = 0
CLASSIFICATION_TYPE = U
NORAD_CAT_ID   = 65943
ELEMENT_SET_NO = 999
REV_AT_EPOCH   = 249
BSTAR          = .79166282E-3
MEAN_MOTION_DOT = .49272E-3
MEAN_MOTION_DDOT = 0

CCSDS_OMM_VERS = 2.0
CREATION_DATE  = 
ORIGINATOR     = 

OBJECT_NAME    = HRC MONOBLOCK CAMERA
OBJECT_ID      = 1998-067XR
CENTER_NAME    = EARTH
REF_FRAME      = TEME
TIME_SYSTEM    = UTC
MEAN_ELEMENT_THEORY = SGP/SGP4

EPOCH          = 2025-10-27T05:29:39.854400
MEAN_MOTION    = 15.50238570
ECCENTRICITY   = .00040738
INCLINATION    = 51.6329
RA_OF_ASC_NODE = 12.7070
ARG_OF_PERICENTER = 351.7929
MEAN_ANOMALY   = 8.2993

EPHEMERIS_TYPE = 0
CLASSIFICATION_TYPE = U
NORAD_CAT_ID   = 66052
ELEMENT_SET_NO = 999
REV_AT_EPOCH   = 161
BSTAR          = .54269507E-3
MEAN_MOTION_DOT = .30905E-3
MEAN_MOTION_DDOT = 0

CCSDS_OMM_VERS = 2.0
CREATION_DATE  = 
ORIGINATOR     = 

OBJECT_NAME    = HTV-X 1
OBJECT_ID      = 2025-241A
CENTER_NAME    = EARTH
REF_FRAME      = TEME
TIME_SYSTEM    = UTC
MEAN_ELEMENT_THEORY = SGP/SGP4

EPOCH          = 2025-10-27T07:14:04.437600
MEAN_MOTION    = 15.66702461
ECCENTRICITY   = .0031084
INCLINATION    = 51.6332
RA_OF_ASC_NODE = 12.4451
ARG_OF_PERICENTER = 307.5153
MEAN_ANOMALY   = 52.3018

EPHEMERIS_TYPE = 0
CLASSIFICATION_TYPE = U
NORAD_CAT_ID   = 66174
ELEMENT_SET_NO = 999
REV_AT_EPOCH   = 21
BSTAR          = .1995E-3
MEAN_MOTION_DOT = .21425E-3
MEAN_MOTION_DDOT = 0

